KUIPER-00125            
1 65954U 25228H   26064.53004401  .00007192  00000+0  97105-3 0  9996
2 65954  51.9032 358.9968 0000930 115.6002 244.5056 14.79950877 22890
KUIPER-00126            
1 65955U 25228J   26064.87989179  .00001262  00000+0  19451-3 0  9998
2 65955  51.8992  17.4479 0001410  72.8155 287.2962 14.79927053 22661
KUIPER-00127            
1 65956U 25228K   26064.82916440  .00004656  00000+0  69451-3 0  9990
2 65956  51.9014   9.0049 0001295 180.3985 179.6975 14.76367355 22786
KUIPER-00128            
1 65957U 25228L   26064.98914648  .00006276  00000+0  85264-3 0  9996
2 65957  51.9023   9.4805 0000793  99.9325 260.1727 14.79876095 22786
KUIPER-00129            
1 65958U 25228M   26064.82582444  .00007032  00000+0  94985-3 0  9996
2 65958  51.9021   5.1885 0000811  85.8723 274.2332 14.79961120 22831
KUIPER-00130            
1 65959U 25228N   26064.85705137  .00006795  00000+0  91754-3 0  9992
2 65959  51.9051   7.5554 0001184 105.8103 254.2990 14.80021907 13091
KUIPER-00134            
1 65960U 25228P   26064.75404370  .00055657  00000+0  14430-2 0  9994
2 65960  51.8755 339.4454 0004190 317.2572  42.8089 15.38467395 23188
KUIPER-00135            
1 65961U 25228Q   26064.82315388  .00007103  00000+0  95958-3 0  9991
2 65961  51.9039   7.7685 0001049  87.4841 272.6241 14.79941614 22795
KUIPER-00136            
1 65962U 25228R   26064.85953649  .00007240  00000+0  97872-3 0  9992
2 65962  51.9018   5.0801 0001399 101.0863 259.0257 14.79888453 22831
KUIPER-00137            
1 65963U 25228S   26063.03973790  .00008369  00000+0  10437-2 0  9995
2 65963  51.9034  10.5966 0000737  94.2766 265.8282 14.83109410 22605
KUIPER-00138            
1 65964U 25228T   26064.83118753 -.00000532  00000+0 -40834-4 0  9997
2 65964  51.9018   0.1552 0000844  96.5676 263.5382 14.79920445 22901
KUIPER-00140            
1 65965U 25228U   26064.82852334 -.00000199  00000+0  29239-5 0  9992
2 65965  51.9015   2.7495 0000979  89.9678 270.1396 14.79916026 22864
KUIPER-00141            
1 65966U 25228V   26064.83395078  .00006999  00000+0  94314-3 0  9998
2 65966  51.9037 357.7375 0000562  66.5651 293.5371 14.80070109 22934
KUIPER-00146            
1 65967U 25228W   26064.97352668  .00003580  00000+0  53996-3 0  9996
2 65967  51.9039 359.3553 0001153 105.4094 254.6994 14.76469207 22928
KUIPER-00149            
1 65968U 25228X   26064.83657598  .00006719  00000+0  90848-3 0  9996
2 65968  51.9026 355.1407 0001618  70.6897 289.4241 14.79977705 22973
KUIPER-00154            
1 65969U 25228Y   26064.94056170  .00005065  00000+0  69294-3 0  9992
2 65969  51.9031 352.1852 0000579 106.7199 253.3827 14.79932356 23022
KUIPER-00157            
1 65970U 25228Z   26064.19502773 -.00002413  00000+0 -28757-3 0  9991
2 65970  51.9052 358.0907 0000626  57.1833 302.9190 14.79948812 22870
