[{"OBJECT_NAME":"KUIPER-00125","OBJECT_ID":"2025-228H","EPOCH":"2026-03-05T12:43:15.802464","MEAN_MOTION":14.79950877,"ECCENTRICITY":9.3e-5,"INCLINATION":51.9032,"RA_OF_ASC_NODE":358.9968,"ARG_OF_PERICENTER":115.6002,"MEAN_ANOMALY":244.5056,"EPHEMERIS_TYPE":0,"CLASSIFICATION_TYPE":"U","NORAD_CAT_ID":65954,"ELEMENT_SET_NO":999,"REV_AT_EPOCH":2289,"BSTAR":0.00097105,"MEAN_MOTION_DOT":7.192e-5,"MEAN_MOTION_DDOT":0},{"OBJECT_NAME":"KUIPER-00126","OBJECT_ID":"2025-228J","EPOCH":"2026-03-05T21:07:02.650656","MEAN_MOTION":14.79927053,"ECCENTRICITY":0.00014101,"INCLINATION":51.8992,"RA_OF_ASC_NODE":17.4479,"ARG_OF_PERICENTER":72.8155,"MEAN_ANOMALY":287.2962,"EPHEMERIS_TYPE":0,"CLASSIFICATION_TYPE":"U","NORAD_CAT_ID":65955,"ELEMENT_SET_NO":999,"REV_AT_EPOCH":2266,"BSTAR":0.00019450907,"MEAN_MOTION_DOT":1.262e-5,"MEAN_MOTION_DDOT":0},{"OBJECT_NAME":"KUIPER-00127","OBJECT_ID":"2025-228K","EPOCH":"2026-03-05T19:53:59.804160","MEAN_MOTION":14.76367355,"ECCENTRICITY":0.00012951,"INCLINATION":51.9014,"RA_OF_ASC_NODE":9.0049,"ARG_OF_PERICENTER":180.3985,"MEAN_ANOMALY":179.6975,"EPHEMERIS_TYPE":0,"CLASSIFICATION_TYPE":"U","NORAD_CAT_ID":65956,"ELEMENT_SET_NO":999,"REV_AT_EPOCH":2278,"BSTAR":0.00069450691,"MEAN_MOTION_DOT":4.656e-5,"MEAN_MOTION_DDOT":0},{"OBJECT_NAME":"KUIPER-00128","OBJECT_ID":"2025-228L","EPOCH":"2026-03-05T23:44:22.255872","MEAN_MOTION":14.79876095,"ECCENTRICITY":7.935e-5,"INCLINATION":51.9023,"RA_OF_ASC_NODE":9.4805,"ARG_OF_PERICENTER":99.9325,"MEAN_ANOMALY":260.1727,"EPHEMERIS_TYPE":0,"CLASSIFICATION_TYPE":"U","NORAD_CAT_ID":65957,"ELEMENT_SET_NO":999,"REV_AT_EPOCH":2278,"BSTAR":0.00085264244,"MEAN_MOTION_DOT":6.276e-5,"MEAN_MOTION_DDOT":0},{"OBJECT_NAME":"KUIPER-00129","OBJECT_ID":"2025-228M","EPOCH":"2026-03-05T19:49:11.231616","MEAN_MOTION":14.7996112,"ECCENTRICITY":8.118e-5,"INCLINATION":51.9021,"RA_OF_ASC_NODE":5.1885,"ARG_OF_PERICENTER":85.8723,"MEAN_ANOMALY":274.2332,"EPHEMERIS_TYPE":0,"CLASSIFICATION_TYPE":"U","NORAD_CAT_ID":65958,"ELEMENT_SET_NO":999,"REV_AT_EPOCH":2283,"BSTAR":0.00094985193,"MEAN_MOTION_DOT":7.032e-5,"MEAN_MOTION_DDOT":0},{"OBJECT_NAME":"KUIPER-00130","OBJECT_ID":"2025-228N","EPOCH":"2026-03-05T20:34:09.238368","MEAN_MOTION":14.80021907,"ECCENTRICITY":0.0001184,"INCLINATION":51.9051,"RA_OF_ASC_NODE":7.5554,"ARG_OF_PERICENTER":105.8103,"MEAN_ANOMALY":254.299,"EPHEMERIS_TYPE":0,"CLASSIFICATION_TYPE":"U","NORAD_CAT_ID":65959,"ELEMENT_SET_NO":999,"REV_AT_EPOCH":1309,"BSTAR":0.00091754123,"MEAN_MOTION_DOT":6.795e-5,"MEAN_MOTION_DDOT":0},{"OBJECT_NAME":"KUIPER-00134","OBJECT_ID":"2025-228P","EPOCH":"2026-03-05T18:05:49.375680","MEAN_MOTION":15.38467395,"ECCENTRICITY":0.00041902,"INCLINATION":51.8755,"RA_OF_ASC_NODE":339.4454,"ARG_OF_PERICENTER":317.2572,"MEAN_ANOMALY":42.8089,"EPHEMERIS_TYPE":0,"CLASSIFICATION_TYPE":"U","NORAD_CAT_ID":65960,"ELEMENT_SET_NO":999,"REV_AT_EPOCH":2318,"BSTAR":0.001442977,"MEAN_MOTION_DOT":0.00055657,"MEAN_MOTION_DDOT":0},{"OBJECT_NAME":"KUIPER-00135","OBJECT_ID":"2025-228Q","EPOCH":"2026-03-05T19:45:20.495232","MEAN_MOTION":14.79941614,"ECCENTRICITY":0.00010495,"INCLINATION":51.9039,"RA_OF_ASC_NODE":7.7685,"ARG_OF_PERICENTER":87.4841,"MEAN_ANOMALY":272.6241,"EPHEMERIS_TYPE":0,"CLASSIFICATION_TYPE":"U","NORAD_CAT_ID":65961,"ELEMENT_SET_NO":999,"REV_AT_EPOCH":2279,"BSTAR":0.00095958244,"MEAN_MOTION_DOT":7.103e-5,"MEAN_MOTION_DDOT":0},{"OBJECT_NAME":"KUIPER-00136","OBJECT_ID":"2025-228R","EPOCH":"2026-03-05T20:37:43.952736","MEAN_MOTION":14.79888453,"ECCENTRICITY":0.0001399,"INCLINATION":51.9018,"RA_OF_ASC_NODE":5.0801,"ARG_OF_PERICENTER":101.0863,"MEAN_ANOMALY":259.0257,"EPHEMERIS_TYPE":0,"CLASSIFICATION_TYPE":"U","NORAD_CAT_ID":65962,"ELEMENT_SET_NO":999,"REV_AT_EPOCH":2283,"BSTAR":0.00097872228,"MEAN_MOTION_DOT":7.24e-5,"MEAN_MOTION_DDOT":0},{"OBJECT_NAME":"KUIPER-00137","OBJECT_ID":"2025-228S","EPOCH":"2026-03-04T00:57:13.354560","MEAN_MOTION":14.8310941,"ECCENTRICITY":7.371e-5,"INCLINATION":51.9034,"RA_OF_ASC_NODE":10.5966,"ARG_OF_PERICENTER":94.2766,"MEAN_ANOMALY":265.8282,"EPHEMERIS_TYPE":0,"CLASSIFICATION_TYPE":"U","NORAD_CAT_ID":65963,"ELEMENT_SET_NO":999,"REV_AT_EPOCH":2260,"BSTAR":0.0010436554,"MEAN_MOTION_DOT":8.369e-5,"MEAN_MOTION_DDOT":0},{"OBJECT_NAME":"KUIPER-00138","OBJECT_ID":"2025-228T","EPOCH":"2026-03-05T19:56:54.602592","MEAN_MOTION":14.79920445,"ECCENTRICITY":8.447e-5,"INCLINATION":51.9018,"RA_OF_ASC_NODE":0.1552,"ARG_OF_PERICENTER":96.5676,"MEAN_ANOMALY":263.5382,"EPHEMERIS_TYPE":0,"CLASSIFICATION_TYPE":"U","NORAD_CAT_ID":65964,"ELEMENT_SET_NO":999,"REV_AT_EPOCH":2290,"BSTAR":-4.0834451e-5,"MEAN_MOTION_DOT":-5.32e-6,"MEAN_MOTION_DDOT":0},{"OBJECT_NAME":"KUIPER-00140","OBJECT_ID":"2025-228U","EPOCH":"2026-03-05T19:53:04.416576","MEAN_MOTION":14.79916026,"ECCENTRICITY":9.797e-5,"INCLINATION":51.9015,"RA_OF_ASC_NODE":2.7495,"ARG_OF_PERICENTER":89.9678,"MEAN_ANOMALY":270.1396,"EPHEMERIS_TYPE":0,"CLASSIFICATION_TYPE":"U","NORAD_CAT_ID":65965,"ELEMENT_SET_NO":999,"REV_AT_EPOCH":2286,"BSTAR":2.923854e-6,"MEAN_MOTION_DOT":-1.99e-6,"MEAN_MOTION_DDOT":0},{"OBJECT_NAME":"KUIPER-00141","OBJECT_ID":"2025-228V","EPOCH":"2026-03-05T20:00:53.347392","MEAN_MOTION":14.80070109,"ECCENTRICITY":5.626e-5,"INCLINATION":51.9037,"RA_OF_ASC_NODE":357.7375,"ARG_OF_PERICENTER":66.5651,"MEAN_ANOMALY":293.5371,"EPHEMERIS_TYPE":0,"CLASSIFICATION_TYPE":"U","NORAD_CAT_ID":65966,"ELEMENT_SET_NO":999,"REV_AT_EPOCH":2293,"BSTAR":0.00094314393,"MEAN_MOTION_DOT":6.999e-5,"MEAN_MOTION_DDOT":0},{"OBJECT_NAME":"KUIPER-00146","OBJECT_ID":"2025-228W","EPOCH":"2026-03-05T23:21:52.705152","MEAN_MOTION":14.76469207,"ECCENTRICITY":0.00011537,"INCLINATION":51.9039,"RA_OF_ASC_NODE":359.3553,"ARG_OF_PERICENTER":105.4094,"MEAN_ANOMALY":254.6994,"EPHEMERIS_TYPE":0,"CLASSIFICATION_TYPE":"U","NORAD_CAT_ID":65967,"ELEMENT_SET_NO":999,"REV_AT_EPOCH":2292,"BSTAR":0.00053995839,"MEAN_MOTION_DOT":3.58e-5,"MEAN_MOTION_DDOT":0},{"OBJECT_NAME":"KUIPER-00149","OBJECT_ID":"2025-228X","EPOCH":"2026-03-05T20:04:40.164672","MEAN_MOTION":14.79977705,"ECCENTRICITY":0.0001618,"INCLINATION":51.9026,"RA_OF_ASC_NODE":355.1407,"ARG_OF_PERICENTER":70.6897,"MEAN_ANOMALY":289.4241,"EPHEMERIS_TYPE":0,"CLASSIFICATION_TYPE":"U","NORAD_CAT_ID":65968,"ELEMENT_SET_NO":999,"REV_AT_EPOCH":2297,"BSTAR":0.00090848245,"MEAN_MOTION_DOT":6.719e-5,"MEAN_MOTION_DDOT":0},{"OBJECT_NAME":"KUIPER-00154","OBJECT_ID":"2025-228Y","EPOCH":"2026-03-05T22:34:24.530880","MEAN_MOTION":14.79932356,"ECCENTRICITY":5.792e-5,"INCLINATION":51.9031,"RA_OF_ASC_NODE":352.1852,"ARG_OF_PERICENTER":106.7199,"MEAN_ANOMALY":253.3827,"EPHEMERIS_TYPE":0,"CLASSIFICATION_TYPE":"U","NORAD_CAT_ID":65969,"ELEMENT_SET_NO":999,"REV_AT_EPOCH":2302,"BSTAR":0.00069294231,"MEAN_MOTION_DOT":5.065e-5,"MEAN_MOTION_DDOT":0},{"OBJECT_NAME":"KUIPER-00157","OBJECT_ID":"2025-228Z","EPOCH":"2026-03-05T04:40:50.395872","MEAN_MOTION":14.79948812,"ECCENTRICITY":6.26e-5,"INCLINATION":51.9052,"RA_OF_ASC_NODE":358.0907,"ARG_OF_PERICENTER":57.1833,"MEAN_ANOMALY":302.919,"EPHEMERIS_TYPE":0,"CLASSIFICATION_TYPE":"U","NORAD_CAT_ID":65970,"ELEMENT_SET_NO":999,"REV_AT_EPOCH":2287,"BSTAR":-0.00028757,"MEAN_MOTION_DOT":-2.413e-5,"MEAN_MOTION_DDOT":0}]
